{"epoch":1784799577,"count":18318,"objects":[{"id":"56333","name":"STARLINK-5553","type":"PAYLOAD","l1":"1 56333U 23058S   26203.92796734  .00080783  00000-0  54368-2 0  9992","l2":"2 56333  97.2830 202.0936 0001526  53.7820 306.3549 15.06348980178541"},{"id":"56334","name":"STARLINK-5548","type":"PAYLOAD","l1":"1 56334U 23058T   26203.41099260  .00005543  00000-0  38771-3 0  9999","l2":"2 56334  97.2817 201.7185 0001936  78.2245 281.9200 15.05657499178478"},{"id":"56335","name":"STARLINK-5559","type":"PAYLOAD","l1":"1 56335U 23058U   26202.95963999  .00000567  00000-0  43220-4 0  9994","l2":"2 56335  97.2839 201.2665 0002039  95.0615 265.0846 15.05655582178407"},{"id":"56336","name":"STARLINK-5562","type":"PAYLOAD","l1":"1 56336U 23058V   26203.72531451 -.00000150  00000-0 -65193-5 0  9999","l2":"2 56336  97.2837 200.8410 0001556  99.5492 260.5911 15.05652347178447"},{"id":"56337","name":"STARLINK-5561","type":"PAYLOAD","l1":"1 56337U 23058W   26203.40964627  .00001310  00000-0  94661-4 0  9998","l2":"2 56337  97.2835 200.5052 0001342 105.8171 254.3204 15.05656424178393"},{"id":"56338","name":"STARLINK-5554","type":"PAYLOAD","l1":"1 56338U 23058X   26203.71423824 -.00000162  00000-0 -73555-5 0  9998","l2":"2 56338  97.2840 200.8557 0002104  91.0140 269.1328 15.05655946178447"},{"id":"56339","name":"STARLINK-5552","type":"PAYLOAD","l1":"1 56339U 23058Y   26203.76962524 -.00000211  00000-0 -10736-4 0  9995","l2":"2 56339  97.2842 200.9355 0002187  87.2918 272.8560 15.05654311178453"},{"id":"56340","name":"STARLINK-5540","type":"PAYLOAD","l1":"1 56340U 23058Z   26203.83335648  .00072355  00000-0  45490-2 0  9995","l2":"2 56340  97.2860 202.0139 0002613  96.5460 146.2237 15.08910832  5806"},{"id":"56341","name":"STARLINK-5543","type":"PAYLOAD","l1":"1 56341U 23058AA  26203.73362907  .00000601  00000-0  45511-4 0  9994","l2":"2 56341  97.2839 200.8293 0002087  84.6075 275.5390 15.05662878178432"},{"id":"56342","name":"STARLINK-5955","type":"PAYLOAD","l1":"1 56342U 23058AB  26203.89835167  .00000373  00000-0  29727-4 0  9992","l2":"2 56342  97.2840 202.1349 0002094  90.2253 269.9215 15.05657260178545"},{"id":"56343","name":"STARLINK-5976","type":"PAYLOAD","l1":"1 56343U 23058AC  26203.92604037  .00000031  00000-0  60343-5 0  9998","l2":"2 56343  97.2841 202.0951 0002202  91.1051 269.0429 15.05653304178545"},{"id":"56344","name":"STARLINK-5974","type":"PAYLOAD","l1":"1 56344U 23058AD  26202.95686016  .00000400  00000-0  31630-4 0  9994","l2":"2 56344  97.2824 201.2669 0001753  90.2386 269.9043 15.05659849178401"},{"id":"56345","name":"STARLINK-5979","type":"PAYLOAD","l1":"1 56345U 23058AE  26203.94960620  .00000206  00000-0  18175-4 0  9994","l2":"2 56345  97.2837 200.9980 0001803  89.8155 270.3279 15.05658403178471"},{"id":"56346","name":"STARLINK-5837","type":"PAYLOAD","l1":"1 56346U 23058AF  26202.44322535 -.00000139  00000-0 -57504-5 0  9993","l2":"2 56346  97.2842 199.6770 0002055  94.0573 266.0890 15.05655313178255"},{"id":"56347","name":"STARLINK-5829","type":"PAYLOAD","l1":"1 56347U 23058AG  26203.90350185  .00029151  00000-0  20009-2 0  9998","l2":"2 56347  97.2830 202.1276 0002637  58.9315 301.2171 15.05930740178549"},{"id":"56348","name":"STARLINK-5888","type":"PAYLOAD","l1":"1 56348U 23058AH  26203.89699125  .00000016  00000-0  50045-5 0  9992","l2":"2 56348  97.2845 200.9177 0001880  96.2431 263.9011 15.05656101178469"},{"id":"56349","name":"STARLINK-5887","type":"PAYLOAD","l1":"1 56349U 23058AJ  26203.71148271  .00000496  00000-0  38262-4 0  9993","l2":"2 56349  97.2839 200.8621 0002145  95.4687 264.6786 15.05656360178447"},{"id":"56350","name":"STARLINK-5886","type":"PAYLOAD","l1":"1 56350U 23058AK  26203.89558242  .00000340  00000-0  27475-4 0  9999","l2":"2 56350  97.2847 202.1407 0001893  89.4327 270.7118 15.05657725178542"},{"id":"56351","name":"STARLINK-5891","type":"PAYLOAD","l1":"1 56351U 23058AL  26203.45530892 -.00001556  00000-0 -10396-3 0  9998","l2":"2 56351  97.2840 201.6635 0002251  92.2749 267.8736 15.05642027178476"},{"id":"56352","name":"STARLINK-5885","type":"PAYLOAD","l1":"1 56352U 23058AM  26203.94406795  .00000202  00000-0  17880-4 0  9998","l2":"2 56352  97.2824 201.0026 0001764  92.3075 267.8355 15.05658072178472"},{"id":"56353","name":"STARLINK-5874","type":"PAYLOAD","l1":"1 56353U 23058AN  26203.94683823  .00000482  00000-0  37262-4 0  9994","l2":"2 56353  97.2836 201.0038 0001797 101.9276 258.2153 15.05657681178470"},{"id":"56354","name":"STARLINK-5877","type":"PAYLOAD","l1":"1 56354U 23058AP  26203.93924042  .00075004  00000-0  50648-2 0  9998","l2":"2 56354  97.2830 202.0763 0001827 117.4582 242.6832 15.06255806178540"},{"id":"56355","name":"STARLINK-5533","type":"PAYLOAD","l1":"1 56355U 23058AQ  26203.83335648  .00613648  00000-0  24680-2 0  9995","l2":"2 56355  97.5226 207.1039 0000567  91.0983 176.3006 15.84909405  5954"},{"id":"56356","name":"STARLINK-5535","type":"PAYLOAD","l1":"1 56356U 23058AR  26203.71835582 -.00000162  00000-0 -73464-5 0  9995","l2":"2 56356  97.2842 201.9202 0001796 103.1949 256.9479 15.05655084178518"},{"id":"56357","name":"STARLINK-5538","type":"PAYLOAD","l1":"1 56357U 23058AS  26203.02055461 -.00001016  00000-0 -66522-4 0  9995","l2":"2 56357  97.2835 201.3375 0001652  75.8964 284.2448 15.05657690178413"},{"id":"56358","name":"STARLINK-5482","type":"PAYLOAD","l1":"1 56358U 23058AT  26203.44286918 -.00000245  00000-0 -13093-4 0  9993","l2":"2 56358  97.2843 200.6160 0001980  91.3244 268.8210 15.05653991178409"},{"id":"56359","name":"STARLINK-5551","type":"PAYLOAD","l1":"1 56359U 23058AU  26202.89736677  .00000123  00000-0  12427-4 0  9997","l2":"2 56359  97.2835 199.9821 0002190  94.1605 265.9873 15.05658448178316"},{"id":"56360","name":"STARLINK-5549","type":"PAYLOAD","l1":"1 56360U 23058AV  26203.70728441 -.00000328  00000-0 -18829-4 0  9991","l2":"2 56360  97.2841 201.9361 0002467  87.3109 272.8402 15.05653281178515"},{"id":"56361","name":"STARLINK-5550","type":"PAYLOAD","l1":"1 56361U 23058AW  26203.45394375 -.00000045  00000-0  77474-6 0  9997","l2":"2 56361  97.2843 200.6006 0001964  93.9719 266.1734 15.05654027178402"},{"id":"56362","name":"STARLINK-5972","type":"PAYLOAD","l1":"1 56362U 23058AX  26203.71282547 -.00000150  00000-0 -64759-5 0  9993","l2":"2 56362  97.2842 201.9286 0002393  95.7846 264.3655 15.05660609178511"}]}