OBJECT_NAME,OBJECT_ID,EPOCH,MEAN_MOTION,ECCENTRICITY,INCLINATION,RA_OF_ASC_NODE,ARG_OF_PERICENTER,MEAN_ANOMALY,EPHEMERIS_TYPE,CLASSIFICATION_TYPE,NORAD_CAT_ID,ELEMENT_SET_NO,REV_AT_EPOCH,BSTAR,MEAN_MOTION_DOT,MEAN_MOTION_DDOT
STARLINK-5553,2023-058S,2026-07-22T22:16:16.378176,15.06348980,.00015262,97.2830,202.0936,53.7820,306.3549,0,U,56333,999,17854,.54367907E-2,.80783E-3,0
STARLINK-5548,2023-058T,2026-07-22T09:51:49.760640,15.05657499,.0001936,97.2817,201.7185,78.2245,281.9200,0,U,56334,999,17847,.38771454E-3,.5543E-4,0
STARLINK-5559,2023-058U,2026-07-21T23:01:52.895136,15.05655582,.00020389,97.2839,201.2665,95.0615,265.0846,0,U,56335,999,17840,.43219959E-4,.567E-5,0
STARLINK-5562,2023-058V,2026-07-22T17:24:27.173664,15.05652347,.00015559,97.2837,200.8410,99.5492,260.5911,0,U,56336,999,17844,-.651925E-5,-.15E-5,0
STARLINK-5561,2023-058W,2026-07-22T09:49:53.437728,15.05656424,.00013417,97.2835,200.5052,105.8171,254.3204,0,U,56337,999,17839,.94660791E-4,.131E-4,0
STARLINK-5554,2023-058X,2026-07-22T17:08:30.183936,15.05655946,.0002104,97.2840,200.8557,91.0140,269.1328,0,U,56338,999,17844,-.7355484E-5,-.162E-5,0
STARLINK-5552,2023-058Y,2026-07-22T18:28:15.620736,15.05654311,.00021865,97.2842,200.9355,87.2918,272.8560,0,U,56339,999,17845,-.10736096E-4,-.211E-5,0
STARLINK-5540,2023-058Z,2026-07-22T20:00:01.999872,15.08910832,.00026129,97.2860,202.0139,96.5460,146.2237,0,U,56340,999,580,.45490441E-2,.72355E-3,0
STARLINK-5543,2023-058AA,2026-07-22T17:36:25.551648,15.05662878,.00020869,97.2839,200.8293,84.6075,275.5390,0,U,56341,999,17843,.45510928E-4,.601E-5,0
STARLINK-5955,2023-058AB,2026-07-22T21:33:37.584288,15.05657260,.00020945,97.2840,202.1349,90.2253,269.9215,0,U,56342,999,17854,.29726738E-4,.373E-5,0
STARLINK-5976,2023-058AC,2026-07-22T22:13:29.887968,15.05653304,.0002202,97.2841,202.0951,91.1051,269.0429,0,U,56343,999,17854,.6034297E-5,.31E-6,0
STARLINK-5974,2023-058AD,2026-07-21T22:57:52.717824,15.05659849,.00017526,97.2824,201.2669,90.2386,269.9043,0,U,56344,999,17840,.31629649E-4,.4E-5,0
STARLINK-5979,2023-058AE,2026-07-22T22:47:25.975680,15.05658403,.00018031,97.2837,200.9980,89.8155,270.3279,0,U,56345,999,17847,.18175124E-4,.206E-5,0
STARLINK-5837,2023-058AF,2026-07-21T10:38:14.670240,15.05655313,.00020552,97.2842,199.6770,94.0573,266.0890,0,U,56346,999,17825,-.5750399E-5,-.139E-5,0
STARLINK-5829,2023-058AG,2026-07-22T21:41:02.559840,15.05930740,.00026375,97.2830,202.1276,58.9315,301.2171,0,U,56347,999,17854,.20008981E-2,.29151E-3,0
STARLINK-5888,2023-058AH,2026-07-22T21:31:40.044000,15.05656101,.00018796,97.2845,200.9177,96.2431,263.9011,0,U,56348,999,17846,.5004503E-5,.16E-6,0
STARLINK-5887,2023-058AJ,2026-07-22T17:04:32.106144,15.05656360,.00021455,97.2839,200.8621,95.4687,264.6786,0,U,56349,999,17844,.38261602E-4,.496E-5,0
STARLINK-5886,2023-058AK,2026-07-22T21:29:38.321088,15.05657725,.00018933,97.2847,202.1407,89.4327,270.7118,0,U,56350,999,17854,.27474692E-4,.34E-5,0
STARLINK-5891,2023-058AL,2026-07-22T10:55:38.690688,15.05642027,.00022506,97.2840,201.6635,92.2749,267.8736,0,U,56351,999,17847,-.10395944E-3,-.1556E-4,0
STARLINK-5885,2023-058AM,2026-07-22T22:39:27.470880,15.05658072,.00017645,97.2824,201.0026,92.3075,267.8355,0,U,56352,999,17847,.17880227E-4,.202E-5,0
STARLINK-5874,2023-058AN,2026-07-22T22:43:26.823072,15.05657681,.00017973,97.2836,201.0038,101.9276,258.2153,0,U,56353,999,17847,.37261611E-4,.482E-5,0
STARLINK-5877,2023-058AP,2026-07-22T22:32:30.372288,15.06255806,.0001827,97.2830,202.0763,117.4582,242.6832,0,U,56354,999,17854,.5064824E-2,.75004E-3,0
STARLINK-5533,2023-058AQ,2026-07-22T20:00:01.999872,15.84909405,.00005671,97.5226,207.1039,91.0983,176.3006,0,U,56355,999,595,.24680386E-2,.613648E-2,0
STARLINK-5535,2023-058AR,2026-07-22T17:14:25.942848,15.05655084,.0001796,97.2842,201.9202,103.1949,256.9479,0,U,56356,999,17851,-.7346431E-5,-.162E-5,0
STARLINK-5538,2023-058AS,2026-07-22T00:29:35.918304,15.05657690,.00016523,97.2835,201.3375,75.8964,284.2448,0,U,56357,999,17841,-.66521632E-4,-.1016E-4,0
STARLINK-5482,2023-058AT,2026-07-22T10:37:43.897152,15.05653991,.00019801,97.2843,200.6160,91.3244,268.8210,0,U,56358,999,17840,-.13093254E-4,-.245E-5,0
STARLINK-5551,2023-058AU,2026-07-21T21:32:12.488928,15.05658448,.00021898,97.2835,199.9821,94.1605,265.9873,0,U,56359,999,17831,.12427063E-4,.123E-5,0
STARLINK-5549,2023-058AV,2026-07-22T16:58:29.373024,15.05653281,.00024668,97.2841,201.9361,87.3109,272.8402,0,U,56360,999,17851,-.18829032E-4,-.328E-5,0
STARLINK-5550,2023-058AW,2026-07-22T10:53:40.740000,15.05654027,.00019642,97.2843,200.6006,93.9719,266.1734,0,U,56361,999,17840,.774742E-6,-.45E-6,0
STARLINK-5972,2023-058AX,2026-07-22T17:06:28.120608,15.05660609,.00023931,97.2842,201.9286,95.7846,264.3655,0,U,56362,999,17851,-.6475866E-5,-.15E-5,0
